NORAD_CAT_ID,OBJECT_NAME,OBJECT_TYPE,EPOCH,MEAN_MOTION,ECCENTRICITY,INCLINATION,RA_OF_ASC_NODE,ARG_OF_PERICENTER,MEAN_ANOMALY,BSTAR,MEAN_MOTION_DOT,MEAN_MOTION_DDOT,TLE_LINE0,TLE_LINE1,TLE_LINE2,SEMIMAJOR_AXIS,PERIOD,APOGEE,PERIGEE,DECAYED
52344.0,STARLINK-3851,PAYLOAD,2022-05-04 18:00:02,15.83649165,0.0001082,53.2175,52.4025,59.1076,354.3987,-0.0043117,-0.00877638,0.0,0 STARLINK-3851,1 52344U 22045P   22124.75002315 -.00877638  00000-0 -43117-2 0  9994,2 52344  53.2175  52.4025 0001082  59.1076 354.3987 15.83649165  3314,6698.268,90.929,320.858,319.408,0.0
52344.0,STARLINK-3851,PAYLOAD,2022-05-05 14:00:01,15.82074419,0.00011,53.2174,48.2198,63.9655,60.8047,-0.004625,-0.00873956,0.0,0 STARLINK-3851,1 52344U 22045P   22125.58334491 -.00873956  00000-0 -46250-2 0  9999,2 52344  53.2174  48.2198 0001100  63.9655  60.8047 15.82074419  3447,6702.712,91.02,325.314,323.84,0.0
52344.0,STARLINK-3851,PAYLOAD,2022-05-05 22:00:00,15.81447255,0.000122,53.2176,46.55,68.163,155.8146,-0.0047841,-0.00877463,0.0,0 STARLINK-3851,1 52344U 22045P   22125.91667824 -.00877463  00000-0 -47841-2 0  9999,2 52344  53.2176  46.5500 0001220  68.1630 155.8146 15.81447255  1466,6704.484,91.056,327.1670000000001,325.531,0.0
52344.0,STARLINK-3851,PAYLOAD,2022-05-06 08:00:01,15.80579038,0.0001067,53.2163,44.4655,71.5824,5.3824,-0.0043055,-0.00768178,0.0,0 STARLINK-3851,1 52344U 22045P   22126.33334491 -.00768178  00000-0 -43055-2 0  9992,2 52344  53.2163  44.4655 0001067  71.5824   5.3824 15.80579038  3561,6706.939,91.106,329.52,328.088,0.0
52344.0,STARLINK-3851,PAYLOAD,2022-05-06 14:00:01,15.80186376,9.82e-05,53.2175,43.2128,77.1901,342.9377,-0.0050475,-0.00873379,0.0,0 STARLINK-3851,1 52344U 22045P   22126.58334491 -.00873379  00000-0 -50475-2 0  9993,2 52344  53.2175  43.2128 0000982  77.1901 342.9377 15.80186376  1570,6708.05,91.128,330.574,329.256,0.0
52344.0,STARLINK-3851,PAYLOAD,2022-05-06 22:00:00,15.79558094,0.0001184,53.2177,41.5477,69.1578,87.9085,-0.0052043,-0.00874747,0.0,0 STARLINK-3851,1 52344U 22045P   22126.91667824 -.00874747  00000-0 -52043-2 0  9992,2 52344  53.2177  41.5477 0001184  69.1578  87.9085 15.79558094  3657,6709.829000000002,91.165,332.48800000000006,330.899,0.0
52344.0,STARLINK-3851,PAYLOAD,2022-05-07 14:00:01,15.78298486,9.45e-05,53.2173,38.2196,80.993,267.6859,-0.0054998,-0.00872878,0.0,0 STARLINK-3851,1 52344U 22045P   22127.58334491 -.00872878  00000-0 -54998-2 0  9991,2 52344  53.2173  38.2196 0000945  80.9930 267.6859 15.78298486  1739,6713.398,91.237,335.898,334.629,0.0
52344.0,STARLINK-3851,PAYLOAD,2022-05-07 20:00:01,15.77830464,0.0001007,53.2175,36.9739,88.4836,241.2673,-0.0056581,-0.00878596,0.0,0 STARLINK-3851,1 52344U 22045P   22127.83334491 -.00878596  00000-0 -56581-2 0  9992,2 52344  53.2175  36.9739 0001007  88.4836 241.2673 15.77830464  3794,6714.726,91.265,337.267,335.915,0.0
52344.0,STARLINK-3851,PAYLOAD,2022-05-07 22:00:00,15.77671064,0.0001043,53.2174,36.5595,74.6986,8.6496,-0.0056767,-0.00875506,0.0,0 STARLINK-3851,1 52344U 22045P   22127.91667824 -.00875506  00000-0 -56767-2 0  9994,2 52344  53.2174  36.5595 0001043  74.6986   8.6496 15.77671064  1786,6715.178000000001,91.274,337.74300000000005,336.343,0.0
52344.0,STARLINK-3851,PAYLOAD,2022-05-08 14:00:01,15.76411147,0.0001082,53.2175,33.2403,89.5592,180.8641,-0.0059858,-0.00872799,0.0,0 STARLINK-3851,1 52344U 22045P   22128.58334491 -.00872799  00000-0 -59858-2 0  9994,2 52344  53.2175  33.2403 0001082  89.5592 180.8641 15.76411147  1889,6718.755999999999,91.347,341.348,339.894,0.0
52344.0,STARLINK-3851,PAYLOAD,2022-05-08 20:00:01,15.75940711,0.0001166,53.2178,31.9984,87.2867,162.5085,-0.0061302,-0.00875141,0.0,0 STARLINK-3851,1 52344U 22045P   22128.83334491 -.00875141  00000-0 -61302-2 0  9993,2 52344  53.2178  31.9984 0001166  87.2867 162.5085 15.75940711  3956,6720.093000000003,91.374,342.741,341.1740000000001,0.0
52344.0,STARLINK-3851,PAYLOAD,2022-05-08 22:00:00,15.75784077,0.0001002,53.2177,31.585,81.6663,281.1581,-0.006183,-0.00876385,0.0,0 STARLINK-3851,1 52344U 22045P   22128.91667824 -.00876385  00000-0 -61830-2 0  9998,2 52344  53.2177  31.5850 0001002  81.6663 281.1581 15.75784077  1941,6720.538000000001,91.383,343.076,341.73,0.0
52344.0,STARLINK-3851,PAYLOAD,2022-05-09 14:00:01,15.74523483,0.0001145,53.2171,28.2749,81.8335,103.5947,-0.0065036,-0.00872534,0.0,0 STARLINK-3851,1 52344U 22045P   22129.58335648 -.00872534  00000-0 -65036-2 0  9992,2 52344  53.2171  28.2749 0001145  81.8335 103.5947 15.74523483  2047,6724.125,91.456,346.759,345.22,0.0
52344.0,STARLINK-3851,PAYLOAD,2022-05-09 22:00:00,15.73844706,0.0001206,53.2173,26.6245,81.3168,194.1892,-0.0057488,-0.00759158,0.0,0 STARLINK-3851,1 52344U 22045P   22129.91667824 -.00759158  00000-0 -57488-2 0  9991,2 52344  53.2173  26.6245 0001206  81.3168 194.1892 15.73844706  2104,6726.058000000001,91.496,348.7340000000001,347.112,0.0
52344.0,STARLINK-3851,PAYLOAD,2022-05-10 00:00:00,15.73614981,0.0001058,53.2173,26.2122,83.3808,304.5526,-0.0041089,-0.00550773,0.0,0 STARLINK-3851,1 52344U 22045P   22130.00001157 -.00550773  00000-0 -41089-2 0  9996,2 52344  53.2173  26.2122 0001058  83.3808 304.5526 15.73614981  4138,6726.712,91.509,349.289,347.866,0.0
52344.0,STARLINK-3851,PAYLOAD,2022-05-10 08:00:01,15.73191878,0.0001091,53.216,24.5628,83.8842,33.2389,7.8713e-05,0.00010437,0.0,0 STARLINK-3851,1 52344U 22045P   22130.33334491  .00010437  00000-0  78713-4 0  9994,2 52344  53.2160  24.5628 0001091  83.8842  33.2389 15.73191878  4190,6727.918000000002,91.534,350.517,349.0490000000001,0.0
52344.0,STARLINK-3851,PAYLOAD,2022-05-10 14:00:01,15.73204549,0.0001068,53.2172,23.3232,91.8243,1.9896,-6.0651e-06,-1.471e-05,0.0,0 STARLINK-3851,1 52344U 22045P   22130.58334491 -.00001471  00000-0 -60651-5 0  9994,2 52344  53.2172  23.3232 0001068  91.8243   1.9896 15.73204549  2204,6727.882,91.533,350.466,349.029,0.0
52344.0,STARLINK-3851,PAYLOAD,2022-05-10 18:00:00,15.73265701,0.0001138,53.2139,22.5016,95.6687,222.6345,4.543e-05,5.778e-05,0.0,0 STARLINK-3851,1 52344U 22045P   22130.75001157  .00005778  00000-0  45430-4 0  9992,2 52344  53.2139  22.5016 0001138  95.6687 222.6345 15.73265701  4255,6727.708000000001,91.529,350.338,348.807,0.0
52344.0,STARLINK-3851,PAYLOAD,2022-05-11 22:00:00,15.73168902,0.0001385999999999,53.2137,16.7291,90.8839,358.8332,0.00012305,0.00016661,0.0,0 STARLINK-3851,1 52344U 22045P   22131.91667824  .00016661  00000-0  12305-3 0  9997,2 52344  53.2137  16.7291 0001386  90.8839 358.8332 15.73168902  4448,6727.984,91.535,350.781,348.916,0.0
52344.0,STARLINK-3851,PAYLOAD,2022-05-12 14:00:01,15.73243581,0.0001197,53.2136,13.4283,101.229,166.3338,-1.6779e-05,-2.978e-05,0.0,0 STARLINK-3851,1 52344U 22045P   22132.58334491 -.00002978  00000-0 -16779-4 0  9990,2 52344  53.2136  13.4283 0001197 101.2290 166.3338 15.73243581  1307,6727.771,91.531,350.441,348.831,0.0
52344.0,STARLINK-3851,PAYLOAD,2022-05-12 20:00:01,15.73260145,0.0001138,53.2137,12.1923,94.5937,149.7426,3.4434e-05,4.227e-05,0.0,0 STARLINK-3851,1 52344U 22045P   22132.83334491  .00004227  00000-0  34434-4 0  9993,2 52344  53.2137  12.1923 0001138  94.5937 149.7426 15.73260145  4583,6727.724,91.53,350.35400000000016,348.8230000000001,0.0
52344.0,STARLINK-3851,PAYLOAD,2022-05-12 22:00:00,15.73263618,0.0001123,53.2136,11.7803,90.0527,266.5338,-4.2285e-05,-6.566e-05,0.0,0 STARLINK-3851,1 52344U 22045P   22132.91667824 -.00006566  00000-0 -42285-4 0  9994,2 52344  53.2136  11.7803 0001123  90.0527 266.5338 15.73263618  1309,6727.714,91.529,350.334,348.8230000000001,0.0
52344.0,STARLINK-3851,PAYLOAD,2022-05-13 06:00:00,15.73411955,8.49e-05,53.2151,10.1294,93.9986,351.5131,-0.0053328999999999,-0.00696321,0.0,0 STARLINK-3851,1 52344U 22045P   22133.25001157 -.00696321  00000-0 -53329-2 0  9996,2 52344  53.2151  10.1294 0000849  93.9986 351.5131 15.73411955  4654,6727.291,91.521,349.727,348.585,0.0
52344.0,STARLINK-3851,PAYLOAD,2022-05-13 14:00:01,15.73172088,9.55e-05,53.213,8.4793,106.2058,68.2839,0.00030457,0.00042288,0.0,0 STARLINK-3851,1 52344U 22045P   22133.58334491  .00042288  00000-0  30457-3 0  9995,2 52344  53.2130   8.4793 0000955 106.2058  68.2839 15.73172088  4705,6727.975,91.535,350.482,349.19699999999995,0.0
52344.0,STARLINK-3851,PAYLOAD,2022-05-13 22:00:00,15.73175338,0.0001136,53.2133,6.8318,91.0402,172.3717,-5.4207e-05,-8.211e-05,0.0,0 STARLINK-3851,1 52344U 22045P   22133.91667824 -.00008211  00000-0 -54207-4 0  9991,2 52344  53.2133   6.8318 0001136  91.0402 172.3717 15.73175338  1305,6727.965,91.535,350.595,349.066,0.0
52344.0,STARLINK-3851,PAYLOAD,2022-05-14 06:00:00,15.73209756,9.63e-05,53.2132,5.182,90.7416,261.5707,0.00014808,0.00020221,0.0,0 STARLINK-3851,1 52344U 22045P   22134.25001157  .00020221  00000-0  14808-3 0  9995,2 52344  53.2132   5.1820 0000963  90.7416 261.5707 15.73209756  4802,6727.8669999999975,91.533,350.38,349.084,0.0
52344.0,STARLINK-3851,PAYLOAD,2022-05-14 14:00:01,15.73222218,9.21e-05,53.2134,3.5306,105.376,335.9015,-2.0556e-06,-9.08e-06,0.0,0 STARLINK-3851,1 52344U 22045P   22134.58334491 -.00000908  00000-0 -20556-5 0  9992,2 52344  53.2134   3.5306 0000921 105.3760 335.9015 15.73222218  1302,6727.831999999999,91.532,350.316,349.077,0.0
52344.0,STARLINK-3851,PAYLOAD,2022-05-14 22:00:00,15.73231055,9.38e-05,53.2131,1.8829,87.3707,82.8773,-0.00027027,-0.00038426,0.0,0 STARLINK-3851,1 52344U 22045P   22134.91667824 -.00038426  00000-0 -27027-3 0  9992,2 52344  53.2131   1.8829 0000938  87.3707  82.8773 15.73231055  1306,6727.807,91.531,350.30300000000005,349.041,0.0
52344.0,STARLINK-3851,PAYLOAD,2022-05-15 06:00:00,15.73253437,9.71e-05,53.2124,0.2326,92.2787,166.8979,-0.00075511,-0.00105512,0.0,0 STARLINK-3851,1 52344U 22045P   22135.25001157 -.00105512  00000-0 -75511-3 0  9993,2 52344  53.2124   0.2326 0000971  92.2787 166.8979 15.73253437  4967,6727.743,91.53,350.261,348.955,0.0
